[{"OBJECT_NAME":"ONEWEB-0161","OBJECT_ID":"2021-025M","EPOCH":"2025-11-16T09:43:04.359648","MEAN_MOTION":13.13469326,"ECCENTRICITY":0.00017773,"INCLINATION":87.9008,"RA_OF_ASC_NODE":2.5186,"ARG_OF_PERICENTER":91.0558,"MEAN_ANOMALY":269.0775,"EPHEMERIS_TYPE":0,"CLASSIFICATION_TYPE":"U","NORAD_CAT_ID":48053,"ELEMENT_SET_NO":999,"REV_AT_EPOCH":22557,"BSTAR":0.00058763522,"MEAN_MOTION_DOT":2.27e-6,"MEAN_MOTION_DDOT":0},{"OBJECT_NAME":"ONEWEB-0158","OBJECT_ID":"2021-025N","EPOCH":"2025-11-16T12:23:57.793632","MEAN_MOTION":13.13467928,"ECCENTRICITY":0.00020735,"INCLINATION":87.9019,"RA_OF_ASC_NODE":2.4793,"ARG_OF_PERICENTER":103.9341,"MEAN_ANOMALY":256.2019,"EPHEMERIS_TYPE":0,"CLASSIFICATION_TYPE":"U","NORAD_CAT_ID":48054,"ELEMENT_SET_NO":999,"REV_AT_EPOCH":22571,"BSTAR":-3.5694293e-5,"MEAN_MOTION_DOT":0,"MEAN_MOTION_DDOT":0},{"OBJECT_NAME":"ONEWEB-0157","OBJECT_ID":"2021-025P","EPOCH":"2025-11-16T09:21:07.925184","MEAN_MOTION":13.13468842,"ECCENTRICITY":0.00018575,"INCLINATION":87.9014,"RA_OF_ASC_NODE":2.5109,"ARG_OF_PERICENTER":84.4113,"MEAN_ANOMALY":275.7228,"EPHEMERIS_TYPE":0,"CLASSIFICATION_TYPE":"U","NORAD_CAT_ID":48055,"ELEMENT_SET_NO":999,"REV_AT_EPOCH":22563,"BSTAR":-0.00065759264,"MEAN_MOTION_DOT":-2.27e-6,"MEAN_MOTION_DDOT":0},{"OBJECT_NAME":"ONEWEB-0162","OBJECT_ID":"2021-025Q","EPOCH":"2025-11-16T12:26:13.511616","MEAN_MOTION":13.13469504,"ECCENTRICITY":0.00016597,"INCLINATION":87.902,"RA_OF_ASC_NODE":2.4869,"ARG_OF_PERICENTER":96.1916,"MEAN_ANOMALY":263.9402,"EPHEMERIS_TYPE":0,"CLASSIFICATION_TYPE":"U","NORAD_CAT_ID":48056,"ELEMENT_SET_NO":999,"REV_AT_EPOCH":22562,"BSTAR":-0.00029219057,"MEAN_MOTION_DOT":-9.4e-7,"MEAN_MOTION_DDOT":0},{"OBJECT_NAME":"ONEWEB-0155","OBJECT_ID":"2021-025R","EPOCH":"2025-11-16T12:36:10.418976","MEAN_MOTION":13.13470193,"ECCENTRICITY":0.00019478,"INCLINATION":87.9016,"RA_OF_ASC_NODE":2.4907,"ARG_OF_PERICENTER":93.5767,"MEAN_ANOMALY":266.5585,"EPHEMERIS_TYPE":0,"CLASSIFICATION_TYPE":"U","NORAD_CAT_ID":48057,"ELEMENT_SET_NO":999,"REV_AT_EPOCH":22576,"BSTAR":-0.00058201229,"MEAN_MOTION_DOT":-2.0e-6,"MEAN_MOTION_DDOT":0},{"OBJECT_NAME":"ONEWEB-0149","OBJECT_ID":"2021-025S","EPOCH":"2025-11-16T09:28:27.574176","MEAN_MOTION":13.13469612,"ECCENTRICITY":0.00016227,"INCLINATION":87.9014,"RA_OF_ASC_NODE":2.5105,"ARG_OF_PERICENTER":96.8002,"MEAN_ANOMALY":263.3311,"EPHEMERIS_TYPE":0,"CLASSIFICATION_TYPE":"U","NORAD_CAT_ID":48058,"ELEMENT_SET_NO":999,"REV_AT_EPOCH":22555,"BSTAR":-0.00033033861,"MEAN_MOTION_DOT":-1.08e-6,"MEAN_MOTION_DDOT":0},{"OBJECT_NAME":"ONEWEB-0148","OBJECT_ID":"2021-025T","EPOCH":"2025-11-16T12:14:13.037568","MEAN_MOTION":13.13469077,"ECCENTRICITY":0.00012576,"INCLINATION":87.901,"RA_OF_ASC_NODE":2.5092,"ARG_OF_PERICENTER":88.4201,"MEAN_ANOMALY":271.7072,"EPHEMERIS_TYPE":0,"CLASSIFICATION_TYPE":"U","NORAD_CAT_ID":48059,"ELEMENT_SET_NO":999,"REV_AT_EPOCH":22569,"BSTAR":4.1826139e-5,"MEAN_MOTION_DOT":2.8e-7,"MEAN_MOTION_DDOT":0},{"OBJECT_NAME":"ONEWEB-0160","OBJECT_ID":"2021-025U","EPOCH":"2025-11-16T08:59:12.357312","MEAN_MOTION":13.1346902,"ECCENTRICITY":0.00021546,"INCLINATION":87.9009,"RA_OF_ASC_NODE":2.5333,"ARG_OF_PERICENTER":118.4395,"MEAN_ANOMALY":241.6952,"EPHEMERIS_TYPE":0,"CLASSIFICATION_TYPE":"U","NORAD_CAT_ID":48060,"ELEMENT_SET_NO":999,"REV_AT_EPOCH":22562,"BSTAR":-0.00070854403,"MEAN_MOTION_DOT":-2.46e-6,"MEAN_MOTION_DDOT":0},{"OBJECT_NAME":"ONEWEB-0163","OBJECT_ID":"2021-025V","EPOCH":"2025-11-16T14:06:21.587904","MEAN_MOTION":13.13468964,"ECCENTRICITY":0.00018833,"INCLINATION":87.9017,"RA_OF_ASC_NODE":2.4754,"ARG_OF_PERICENTER":88.4222,"MEAN_ANOMALY":271.7123,"EPHEMERIS_TYPE":0,"CLASSIFICATION_TYPE":"U","NORAD_CAT_ID":48061,"ELEMENT_SET_NO":999,"REV_AT_EPOCH":22577,"BSTAR":0.00040931015,"MEAN_MOTION_DOT":1.62e-6,"MEAN_MOTION_DDOT":0},{"OBJECT_NAME":"ONEWEB-0159","OBJECT_ID":"2021-025W","EPOCH":"2025-11-16T08:25:05.384064","MEAN_MOTION":13.13468662,"ECCENTRICITY":0.0001722,"INCLINATION":87.9021,"RA_OF_ASC_NODE":2.5059,"ARG_OF_PERICENTER":90.5146,"MEAN_ANOMALY":269.6181,"EPHEMERIS_TYPE":0,"CLASSIFICATION_TYPE":"U","NORAD_CAT_ID":48062,"ELEMENT_SET_NO":999,"REV_AT_EPOCH":22566,"BSTAR":0.00040968619,"MEAN_MOTION_DOT":1.62e-6,"MEAN_MOTION_DDOT":0},{"OBJECT_NAME":"ONEWEB-0164","OBJECT_ID":"2021-025X","EPOCH":"2025-11-16T13:27:21.207168","MEAN_MOTION":13.13469248,"ECCENTRICITY":0.00019318,"INCLINATION":87.9014,"RA_OF_ASC_NODE":2.4717,"ARG_OF_PERICENTER":99.6358,"MEAN_ANOMALY":260.499,"EPHEMERIS_TYPE":0,"CLASSIFICATION_TYPE":"U","NORAD_CAT_ID":48063,"ELEMENT_SET_NO":999,"REV_AT_EPOCH":22567,"BSTAR":0.00055139218,"MEAN_MOTION_DOT":2.14e-6,"MEAN_MOTION_DDOT":0},{"OBJECT_NAME":"ONEWEB-0167","OBJECT_ID":"2021-025Y","EPOCH":"2025-11-16T12:17:52.811520","MEAN_MOTION":13.13470149,"ECCENTRICITY":0.00024367,"INCLINATION":87.9008,"RA_OF_ASC_NODE":2.5107,"ARG_OF_PERICENTER":85.8604,"MEAN_ANOMALY":274.2804,"EPHEMERIS_TYPE":0,"CLASSIFICATION_TYPE":"U","NORAD_CAT_ID":48064,"ELEMENT_SET_NO":999,"REV_AT_EPOCH":22565,"BSTAR":0.00018501243,"MEAN_MOTION_DOT":8.0e-7,"MEAN_MOTION_DDOT":0},{"OBJECT_NAME":"ONEWEB-0166","OBJECT_ID":"2021-025Z","EPOCH":"2025-11-16T09:11:23.760960","MEAN_MOTION":13.13469128,"ECCENTRICITY":0.00016762,"INCLINATION":87.9014,"RA_OF_ASC_NODE":2.4908,"ARG_OF_PERICENTER":94.1787,"MEAN_ANOMALY":265.9534,"EPHEMERIS_TYPE":0,"CLASSIFICATION_TYPE":"U","NORAD_CAT_ID":48065,"ELEMENT_SET_NO":999,"REV_AT_EPOCH":22571,"BSTAR":-0.00094729596,"MEAN_MOTION_DOT":-3.33e-6,"MEAN_MOTION_DDOT":0},{"OBJECT_NAME":"ONEWEB-0151","OBJECT_ID":"2021-025AA","EPOCH":"2025-11-16T12:53:13.403616","MEAN_MOTION":13.13469315,"ECCENTRICITY":0.00019861,"INCLINATION":87.9014,"RA_OF_ASC_NODE":2.4856,"ARG_OF_PERICENTER":95.1172,"MEAN_ANOMALY":265.0184,"EPHEMERIS_TYPE":0,"CLASSIFICATION_TYPE":"U","NORAD_CAT_ID":48066,"ELEMENT_SET_NO":999,"REV_AT_EPOCH":22567,"BSTAR":-0.00082087795,"MEAN_MOTION_DOT":-2.87e-6,"MEAN_MOTION_DDOT":0},{"OBJECT_NAME":"ONEWEB-0170","OBJECT_ID":"2021-025AB","EPOCH":"2025-11-16T09:26:02.073984","MEAN_MOTION":13.13470246,"ECCENTRICITY":0.00022413,"INCLINATION":87.9009,"RA_OF_ASC_NODE":2.5208,"ARG_OF_PERICENTER":103.4567,"MEAN_ANOMALY":256.6812,"EPHEMERIS_TYPE":0,"CLASSIFICATION_TYPE":"U","NORAD_CAT_ID":48067,"ELEMENT_SET_NO":999,"REV_AT_EPOCH":22561,"BSTAR":-0.00052456808,"MEAN_MOTION_DOT":-1.79e-6,"MEAN_MOTION_DDOT":0},{"OBJECT_NAME":"ONEWEB-0168","OBJECT_ID":"2021-025AC","EPOCH":"2025-11-16T12:43:28.562016","MEAN_MOTION":13.13469168,"ECCENTRICITY":0.00018124,"INCLINATION":87.9021,"RA_OF_ASC_NODE":2.477,"ARG_OF_PERICENTER":91.3414,"MEAN_ANOMALY":268.7923,"EPHEMERIS_TYPE":0,"CLASSIFICATION_TYPE":"U","NORAD_CAT_ID":48068,"ELEMENT_SET_NO":999,"REV_AT_EPOCH":22564,"BSTAR":-0.00086971706,"MEAN_MOTION_DOT":-3.05e-6,"MEAN_MOTION_DDOT":0},{"OBJECT_NAME":"ONEWEB-0173","OBJECT_ID":"2021-025AD","EPOCH":"2025-11-16T14:20:59.053344","MEAN_MOTION":13.13468831,"ECCENTRICITY":0.00019914,"INCLINATION":87.9018,"RA_OF_ASC_NODE":2.4713,"ARG_OF_PERICENTER":85.1441,"MEAN_ANOMALY":274.9915,"EPHEMERIS_TYPE":0,"CLASSIFICATION_TYPE":"U","NORAD_CAT_ID":48069,"ELEMENT_SET_NO":999,"REV_AT_EPOCH":22589,"BSTAR":-0.00041039138,"MEAN_MOTION_DOT":-1.37e-6,"MEAN_MOTION_DDOT":0}]
