ONEWEB-0161             
1 48053U 21025M   25320.40491157  .00000227  00000+0  58764-3 0  9996
2 48053  87.9008   2.5186 0001777  91.0558 269.0775 13.13469326225571
ONEWEB-0158             
1 48054U 21025N   25320.51664113  .00000000  00000+0 -35694-4 0  9991
2 48054  87.9019   2.4793 0002073 103.9341 256.2019 13.13467928225711
ONEWEB-0157             
1 48055U 21025P   25320.38967506 -.00000227  00000+0 -65759-3 0  9995
2 48055  87.9014   2.5109 0001857  84.4113 275.7228 13.13468842225633
ONEWEB-0162             
1 48056U 21025Q   25320.51821194 -.00000094  00000+0 -29219-3 0  9996
2 48056  87.9020   2.4869 0001659  96.1916 263.9402 13.13469504225622
ONEWEB-0155             
1 48057U 21025R   25320.52512059 -.00000200  00000+0 -58201-3 0  9997
2 48057  87.9016   2.4907 0001947  93.5767 266.5585 13.13470193225768
ONEWEB-0149             
1 48058U 21025S   25320.39476359 -.00000108  00000+0 -33034-3 0  9999
2 48058  87.9014   2.5105 0001622  96.8002 263.3311 13.13469612225559
ONEWEB-0148             
1 48059U 21025T   25320.50987312  .00000028  00000+0  41826-4 0  9997
2 48059  87.9010   2.5092 0001257  88.4201 271.7072 13.13469077225690
ONEWEB-0160             
1 48060U 21025U   25320.37444858 -.00000246  00000+0 -70854-3 0  9993
2 48060  87.9009   2.5333 0002154 118.4395 241.6952 13.13469020225627
ONEWEB-0163             
1 48061U 21025V   25320.58774986  .00000162  00000+0  40931-3 0  9993
2 48061  87.9017   2.4754 0001883  88.4222 271.7123 13.13468964225772
ONEWEB-0159             
1 48062U 21025W   25320.35075676  .00000162  00000+0  40969-3 0  9990
2 48062  87.9021   2.5059 0001722  90.5146 269.6181 13.13468662225661
ONEWEB-0164             
1 48063U 21025X   25320.56066212  .00000214  00000+0  55139-3 0  9993
2 48063  87.9014   2.4717 0001931  99.6358 260.4990 13.13469248225670
ONEWEB-0167             
1 48064U 21025Y   25320.51241680  .00000080  00000+0  18501-3 0  9996
2 48064  87.9008   2.5107 0002436  85.8604 274.2804 13.13470149225657
ONEWEB-0166             
1 48065U 21025Z   25320.38291390 -.00000333  00000+0 -94730-3 0  9996
2 48065  87.9014   2.4908 0001676  94.1787 265.9534 13.13469128225712
ONEWEB-0151             
1 48066U 21025AA  25320.53696069 -.00000287  00000+0 -82088-3 0  9997
2 48066  87.9014   2.4856 0001986  95.1172 265.0184 13.13469315225673
ONEWEB-0170             
1 48067U 21025AB  25320.39307956 -.00000179  00000+0 -52457-3 0  9993
2 48067  87.9009   2.5208 0002241 103.4567 256.6812 13.13470246225619
ONEWEB-0168             
1 48068U 21025AC  25320.53019169 -.00000305  00000+0 -86972-3 0  9996
2 48068  87.9021   2.4770 0001812  91.3414 268.7923 13.13469168225647
ONEWEB-0173             
1 48069U 21025AD  25320.59790571 -.00000137  00000+0 -41039-3 0  9994
2 48069  87.9018   2.4713 0001991  85.1441 274.9915 13.13468831225893
